[{"OBJECT_NAME":"SES-7 (PROTOSTAR 2)","OBJECT_ID":"2009-027A","EPOCH":"2026-03-03T23:08:51.934272","MEAN_MOTION":1.00271899,"ECCENTRICITY":0.0001523,"INCLINATION":0.021,"RA_OF_ASC_NODE":105.9616,"ARG_OF_PERICENTER":200.1229,"MEAN_ANOMALY":311.1004,"EPHEMERIS_TYPE":0,"CLASSIFICATION_TYPE":"U","NORAD_CAT_ID":34941,"ELEMENT_SET_NO":999,"REV_AT_EPOCH":6157,"BSTAR":0,"MEAN_MOTION_DOT":-3.58e-6,"MEAN_MOTION_DDOT":0},{"OBJECT_NAME":"MEASAT-3A","OBJECT_ID":"2009-032A","EPOCH":"2026-03-03T21:41:00.355776","MEAN_MOTION":1.00271643,"ECCENTRICITY":0.0003538,"INCLINATION":0.0444,"RA_OF_ASC_NODE":343.9953,"ARG_OF_PERICENTER":5.6835,"MEAN_ANOMALY":297.2188,"EPHEMERIS_TYPE":0,"CLASSIFICATION_TYPE":"U","NORAD_CAT_ID":35362,"ELEMENT_SET_NO":999,"REV_AT_EPOCH":697,"BSTAR":0,"MEAN_MOTION_DOT":-1.24e-6,"MEAN_MOTION_DDOT":0},{"OBJECT_NAME":"GOES 14","OBJECT_ID":"2009-033A","EPOCH":"2026-03-04T03:00:58.251744","MEAN_MOTION":1.00124205,"ECCENTRICITY":0.0002238,"INCLINATION":1.4182,"RA_OF_ASC_NODE":84.4254,"ARG_OF_PERICENTER":297.9403,"MEAN_ANOMALY":26.7353,"EPHEMERIS_TYPE":0,"CLASSIFICATION_TYPE":"U","NORAD_CAT_ID":35491,"ELEMENT_SET_NO":999,"REV_AT_EPOCH":553,"BSTAR":0,"MEAN_MOTION_DOT":1.16e-6,"MEAN_MOTION_DDOT":0},{"OBJECT_NAME":"FM-5","OBJECT_ID":"2009-034A","EPOCH":"2026-03-04T04:10:38.597376","MEAN_MOTION":1.00270259,"ECCENTRICITY":8.74e-5,"INCLINATION":0.0402,"RA_OF_ASC_NODE":274.4593,"ARG_OF_PERICENTER":318.245,"MEAN_ANOMALY":265.7065,"EPHEMERIS_TYPE":0,"CLASSIFICATION_TYPE":"U","NORAD_CAT_ID":35493,"ELEMENT_SET_NO":999,"REV_AT_EPOCH":4559,"BSTAR":0,"MEAN_MOTION_DOT":-2.12e-6,"MEAN_MOTION_DDOT":0},{"OBJECT_NAME":"TERRESTAR-1","OBJECT_ID":"2009-035A","EPOCH":"2026-03-03T13:32:48.818688","MEAN_MOTION":1.0027152,"ECCENTRICITY":0.0002899,"INCLINATION":5.0935,"RA_OF_ASC_NODE":48.8335,"ARG_OF_PERICENTER":301.5224,"MEAN_ANOMALY":263.1652,"EPHEMERIS_TYPE":0,"CLASSIFICATION_TYPE":"U","NORAD_CAT_ID":35496,"ELEMENT_SET_NO":999,"REV_AT_EPOCH":6107,"BSTAR":0,"MEAN_MOTION_DOT":-6.8e-7,"MEAN_MOTION_DDOT":0},{"OBJECT_NAME":"ASIASAT 5","OBJECT_ID":"2009-042A","EPOCH":"2026-03-04T03:59:38.679360","MEAN_MOTION":1.00271762,"ECCENTRICITY":0.0001469,"INCLINATION":0.0278,"RA_OF_ASC_NODE":234.1761,"ARG_OF_PERICENTER":97.0255,"MEAN_ANOMALY":351.1431,"EPHEMERIS_TYPE":0,"CLASSIFICATION_TYPE":"U","NORAD_CAT_ID":35696,"ELEMENT_SET_NO":999,"REV_AT_EPOCH":6065,"BSTAR":0,"MEAN_MOTION_DOT":-3.2e-6,"MEAN_MOTION_DDOT":0},{"OBJECT_NAME":"JCSAT-12 (JCSAT-RA)","OBJECT_ID":"2009-044A","EPOCH":"2026-03-03T23:15:36.288000","MEAN_MOTION":1.00271026,"ECCENTRICITY":0.0001981,"INCLINATION":0.0207,"RA_OF_ASC_NODE":116.6331,"ARG_OF_PERICENTER":184.4336,"MEAN_ANOMALY":341.5898,"EPHEMERIS_TYPE":0,"CLASSIFICATION_TYPE":"U","NORAD_CAT_ID":35755,"ELEMENT_SET_NO":999,"REV_AT_EPOCH":6055,"BSTAR":0,"MEAN_MOTION_DOT":-3.41e-6,"MEAN_MOTION_DDOT":0},{"OBJECT_NAME":"OPTUS D3","OBJECT_ID":"2009-044B","EPOCH":"2026-03-03T09:30:29.804256","MEAN_MOTION":1.00270848,"ECCENTRICITY":0.00030959,"INCLINATION":0.8832,"RA_OF_ASC_NODE":269.6813,"ARG_OF_PERICENTER":67.3931,"MEAN_ANOMALY":122.8008,"EPHEMERIS_TYPE":0,"CLASSIFICATION_TYPE":"U","NORAD_CAT_ID":35756,"ELEMENT_SET_NO":999,"REV_AT_EPOCH":6050,"BSTAR":0,"MEAN_MOTION_DOT":-1.62e-6,"MEAN_MOTION_DDOT":0},{"OBJECT_NAME":"NIMIQ 5","OBJECT_ID":"2009-050A","EPOCH":"2026-03-04T03:44:38.901120","MEAN_MOTION":1.00273209,"ECCENTRICITY":0.0002655,"INCLINATION":0.0537,"RA_OF_ASC_NODE":271.2563,"ARG_OF_PERICENTER":72.6011,"MEAN_ANOMALY":161.4903,"EPHEMERIS_TYPE":0,"CLASSIFICATION_TYPE":"U","NORAD_CAT_ID":35873,"ELEMENT_SET_NO":999,"REV_AT_EPOCH":6029,"BSTAR":0,"MEAN_MOTION_DOT":-2.69e-6,"MEAN_MOTION_DDOT":0},{"OBJECT_NAME":"AMAZONAS 2","OBJECT_ID":"2009-054A","EPOCH":"2026-03-04T03:36:38.719296","MEAN_MOTION":1.00272824,"ECCENTRICITY":0.0003479,"INCLINATION":1.5427,"RA_OF_ASC_NODE":84.4755,"ARG_OF_PERICENTER":258.9264,"MEAN_ANOMALY":171.8575,"EPHEMERIS_TYPE":0,"CLASSIFICATION_TYPE":"U","NORAD_CAT_ID":35942,"ELEMENT_SET_NO":999,"REV_AT_EPOCH":6013,"BSTAR":0,"MEAN_MOTION_DOT":-2.95e-6,"MEAN_MOTION_DDOT":0},{"OBJECT_NAME":"COMSATBW-1","OBJECT_ID":"2009-054B","EPOCH":"2026-03-04T02:21:17.057376","MEAN_MOTION":1.00276456,"ECCENTRICITY":0.0003654,"INCLINATION":0.0202,"RA_OF_ASC_NODE":100.5309,"ARG_OF_PERICENTER":261.0162,"MEAN_ANOMALY":258.6269,"EPHEMERIS_TYPE":0,"CLASSIFICATION_TYPE":"U","NORAD_CAT_ID":35943,"ELEMENT_SET_NO":999,"REV_AT_EPOCH":6025,"BSTAR":0,"MEAN_MOTION_DOT":1.1e-7,"MEAN_MOTION_DDOT":0},{"OBJECT_NAME":"NSS-12","OBJECT_ID":"2009-058A","EPOCH":"2026-03-04T02:19:39.713088","MEAN_MOTION":1.00272394,"ECCENTRICITY":0.0005013,"INCLINATION":0.0269,"RA_OF_ASC_NODE":288.7402,"ARG_OF_PERICENTER":39.104,"MEAN_ANOMALY":285.9038,"EPHEMERIS_TYPE":0,"CLASSIFICATION_TYPE":"U","NORAD_CAT_ID":36032,"ELEMENT_SET_NO":999,"REV_AT_EPOCH":5986,"BSTAR":0,"MEAN_MOTION_DOT":5.9e-7,"MEAN_MOTION_DDOT":0},{"OBJECT_NAME":"THOR 6","OBJECT_ID":"2009-058B","EPOCH":"2026-03-04T03:45:46.457280","MEAN_MOTION":1.00272063,"ECCENTRICITY":0.0001916,"INCLINATION":0.0347,"RA_OF_ASC_NODE":249.062,"ARG_OF_PERICENTER":108.6949,"MEAN_ANOMALY":219.7416,"EPHEMERIS_TYPE":0,"CLASSIFICATION_TYPE":"U","NORAD_CAT_ID":36033,"ELEMENT_SET_NO":999,"REV_AT_EPOCH":5995,"BSTAR":0,"MEAN_MOTION_DOT":-2.2e-7,"MEAN_MOTION_DDOT":0},{"OBJECT_NAME":"INTELSAT 14 (IS-14)","OBJECT_ID":"2009-064A","EPOCH":"2026-03-04T01:55:38.590464","MEAN_MOTION":1.00271364,"ECCENTRICITY":0.0002592,"INCLINATION":0.0195,"RA_OF_ASC_NODE":94.3366,"ARG_OF_PERICENTER":263.7312,"MEAN_ANOMALY":147.6629,"EPHEMERIS_TYPE":0,"CLASSIFICATION_TYPE":"U","NORAD_CAT_ID":36097,"ELEMENT_SET_NO":999,"REV_AT_EPOCH":5955,"BSTAR":0,"MEAN_MOTION_DOT":-2.86e-6,"MEAN_MOTION_DDOT":0},{"OBJECT_NAME":"EUTELSAT 36B","OBJECT_ID":"2009-065A","EPOCH":"2026-03-04T02:17:47.391360","MEAN_MOTION":1.00271585,"ECCENTRICITY":0.0005875,"INCLINATION":0.2262,"RA_OF_ASC_NODE":77.5548,"ARG_OF_PERICENTER":267.2251,"MEAN_ANOMALY":261.9811,"EPHEMERIS_TYPE":0,"CLASSIFICATION_TYPE":"U","NORAD_CAT_ID":36101,"ELEMENT_SET_NO":999,"REV_AT_EPOCH":5965,"BSTAR":0,"MEAN_MOTION_DOT":1.0e-6,"MEAN_MOTION_DDOT":0},{"OBJECT_NAME":"INTELSAT 15 (IS-15)","OBJECT_ID":"2009-067A","EPOCH":"2026-03-04T02:27:38.947104","MEAN_MOTION":1.00270085,"ECCENTRICITY":0.0002396,"INCLINATION":0.0155,"RA_OF_ASC_NODE":227.9347,"ARG_OF_PERICENTER":125.2874,"MEAN_ANOMALY":290.6758,"EPHEMERIS_TYPE":0,"CLASSIFICATION_TYPE":"U","NORAD_CAT_ID":36106,"ELEMENT_SET_NO":999,"REV_AT_EPOCH":4017,"BSTAR":0,"MEAN_MOTION_DOT":-1.97e-6,"MEAN_MOTION_DDOT":0},{"OBJECT_NAME":"DIRECTV 12","OBJECT_ID":"2009-075A","EPOCH":"2026-03-04T03:16:49.232352","MEAN_MOTION":1.00271958,"ECCENTRICITY":3.45e-5,"INCLINATION":0.0187,"RA_OF_ASC_NODE":330.2938,"ARG_OF_PERICENTER":34.9528,"MEAN_ANOMALY":103.1258,"EPHEMERIS_TYPE":0,"CLASSIFICATION_TYPE":"U","NORAD_CAT_ID":36131,"ELEMENT_SET_NO":999,"REV_AT_EPOCH":4550,"BSTAR":0,"MEAN_MOTION_DOT":-1.16e-6,"MEAN_MOTION_DDOT":0}]
